start=new Date('2022-11-05T00:00:00.000Z').valueOf();
sats=[{"EPHEMERIS_TYPE":"0","PERIAPSIS":"538.766","OBJECT_NAME":"STARLINK-3660","LAUNCH_DATE":"2022-03-09","REF_FRAME":"TEME","ECCENTRICITY":"0.00014030","PERIOD":"95.437","BSTAR":"0.00007936800000","SITE":"AFETR","APOAPSIS":"540.707","MEAN_MOTION_DOT":"0.00000976","TLE_LINE2":"2 51977  53.2186  99.8624 0001403  53.9007 306.2114 15.08842952 37029","ELEMENT_SET_NO":"999","TIME_SYSTEM":"UTC","CLASSIFICATION_TYPE":"U","OBJECT_TYPE":"PAYLOAD","MEAN_ANOMALY":"306.2114","DECAY_DATE":null,"NORAD_CAT_ID":"51977","MEAN_MOTION":"15.08842952","ARG_OF_PERICENTER":"53.9007","MEAN_MOTION_DDOT":"0.0000000000000","REV_AT_EPOCH":"3702","SEMIMAJOR_AXIS":"6917.871","RA_OF_ASC_NODE":"99.8624","CENTER_NAME":"EARTH","MEAN_ELEMENT_THEORY":"SGP4","COUNTRY_CODE":"US","EPOCH":"2022-11-04T19:30:10.550304","GP_ID":"216938402","FILE":"3645105","RCS_SIZE":"LARGE","INCLINATION":"53.2186","OBJECT_ID":"2022-025X","TLE_LINE1":"1 51977U 22025X   22308.81262211  .00000976  00000-0  79368-4 0  9997"},{"ARG_OF_PERICENTER":"49.5039","NORAD_CAT_ID":"51978","MEAN_MOTION":"15.08845290","DECAY_DATE":null,"MEAN_ANOMALY":"310.6090","OBJECT_TYPE":"PAYLOAD","TLE_LINE2":"2 51978  53.2166 120.1835 0001578  49.5039 310.6090 15.08845290 36736","ELEMENT_SET_NO":"999","TIME_SYSTEM":"UTC","CLASSIFICATION_TYPE":"U","MEAN_MOTION_DOT":"0.00002565","APOAPSIS":"540.821","SITE":"AFETR","BSTAR":"0.00017916000000","ECCENTRICITY":"0.00015780","REF_FRAME":"TEME","PERIOD":"95.437","LAUNCH_DATE":"2022-03-09","OBJECT_NAME":"STARLINK-3666","PERIAPSIS":"538.638","EPHEMERIS_TYPE":"0","TLE_LINE1":"1 51978U 22025Y   22308.73719672  .00002565  00000-0  17916-3 0  9993","OBJECT_ID":"2022-025Y","INCLINATION":"53.2166","RCS_SIZE":"LARGE","FILE":"3645105","GP_ID":"216937161","COUNTRY_CODE":"US","MEAN_ELEMENT_THEORY":"SGP4","EPOCH":"2022-11-04T17:41:33.796608","RA_OF_ASC_NODE":"120.1835","CENTER_NAME":"EARTH","SEMIMAJOR_AXIS":"6917.864","MEAN_MOTION_DDOT":"0.0000000000000","REV_AT_EPOCH":"3673"},{"OBJECT_TYPE":"PAYLOAD","MEAN_MOTION_DOT":"0.00000486","CLASSIFICATION_TYPE":"U","TIME_SYSTEM":"UTC","TLE_LINE2":"2 51979  53.2169 120.1362 0001670  69.1598 290.9573 15.08841807 36743","ELEMENT_SET_NO":"999","NORAD_CAT_ID":"51979","MEAN_MOTION":"15.08841807","ARG_OF_PERICENTER":"69.1598","MEAN_ANOMALY":"290.9573","DECAY_DATE":null,"PERIAPSIS":"538.585","EPHEMERIS_TYPE":"0","PERIOD":"95.437","REF_FRAME":"TEME","ECCENTRICITY":"0.00016700","BSTAR":"0.00004865900000","SITE":"AFETR","APOAPSIS":"540.895","OBJECT_NAME":"STARLINK-3656","LAUNCH_DATE":"2022-03-09","RCS_SIZE":"LARGE","FILE":"3645105","INCLINATION":"53.2169","GP_ID":"216936911","TLE_LINE1":"1 51979U 22025Z   22308.75191248  .00000486  00000-0  48659-4 0  9998","OBJECT_ID":"2022-025Z","SEMIMAJOR_AXIS":"6917.875","REV_AT_EPOCH":"3674","MEAN_MOTION_DDOT":"0.0000000000000","RA_OF_ASC_NODE":"120.1362","CENTER_NAME":"EARTH","EPOCH":"2022-11-04T18:02:45.238272","COUNTRY_CODE":"US","MEAN_ELEMENT_THEORY":"SGP4"},{"OBJECT_TYPE":"PAYLOAD","MEAN_MOTION_DOT":"0.00008712","TIME_SYSTEM":"UTC","CLASSIFICATION_TYPE":"U","ELEMENT_SET_NO":"999","TLE_LINE2":"2 51980  53.2166 120.8070 0001063  75.4878 284.6232 15.08813131 36710","NORAD_CAT_ID":"51980","MEAN_MOTION":"15.08813131","ARG_OF_PERICENTER":"75.4878","MEAN_ANOMALY":"284.6232","DECAY_DATE":null,"PERIAPSIS":"539.092","EPHEMERIS_TYPE":"0","PERIOD":"95.439","ECCENTRICITY":"0.00010630","REF_FRAME":"TEME","APOAPSIS":"540.563","SITE":"AFETR","BSTAR":"0.00056521000000","OBJECT_NAME":"STARLINK-3649","LAUNCH_DATE":"2022-03-09","FILE":"3645105","RCS_SIZE":"LARGE","INCLINATION":"53.2166","GP_ID":"216938163","TLE_LINE1":"1 51980U 22025AA  22308.59736437  .00008712  00000-0  56521-3 0  9993","OBJECT_ID":"2022-025AA","SEMIMAJOR_AXIS":"6917.963","REV_AT_EPOCH":"3671","MEAN_MOTION_DDOT":"0.0000000000000","RA_OF_ASC_NODE":"120.8070","CENTER_NAME":"EARTH","EPOCH":"2022-11-04T14:20:12.281568","COUNTRY_CODE":"US","MEAN_ELEMENT_THEORY":"SGP4"},{"MEAN_ANOMALY":"313.9746","DECAY_DATE":null,"MEAN_MOTION":"15.08832581","NORAD_CAT_ID":"51981","ARG_OF_PERICENTER":"46.1410","MEAN_MOTION_DOT":"0.00000135","CLASSIFICATION_TYPE":"U","TIME_SYSTEM":"UTC","TLE_LINE2":"2 51981  53.2155 119.8519 0001983  46.1410 313.9746 15.08832581 37844","ELEMENT_SET_NO":"999","OBJECT_TYPE":"PAYLOAD","OBJECT_NAME":"STARLINK-3635","LAUNCH_DATE":"2022-03-09","PERIOD":"95.438","ECCENTRICITY":"0.00019830","REF_FRAME":"TEME","APOAPSIS":"541.140","SITE":"AFETR","BSTAR":"0.00002659200000","EPHEMERIS_TYPE":"0","PERIAPSIS":"538.396","OBJECT_ID":"2022-025AB","TLE_LINE1":"1 51981U 22025AB  22308.81080236  .00000135  00000-0  26592-4 0  9995","GP_ID":"216908058","FILE":"3644843","RCS_SIZE":"LARGE","INCLINATION":"53.2155","RA_OF_ASC_NODE":"119.8519","CENTER_NAME":"EARTH","EPOCH":"2022-11-04T19:27:33.323904","MEAN_ELEMENT_THEORY":"SGP4","COUNTRY_CODE":"US","REV_AT_EPOCH":"3784","MEAN_MOTION_DDOT":"0.0000000000000","SEMIMAJOR_AXIS":"6917.903"},{"MEAN_MOTION_DDOT":"0.0000000000000","REV_AT_EPOCH":"3672","SEMIMAJOR_AXIS":"6917.854","COUNTRY_CODE":"US","MEAN_ELEMENT_THEORY":"SGP4","EPOCH":"2022-11-04T15:50:16.396800","RA_OF_ASC_NODE":"120.5303","CENTER_NAME":"EARTH","GP_ID":"216936661","INCLINATION":"53.2171","FILE":"3645105","RCS_SIZE":"LARGE","OBJECT_ID":"2022-025AC","TLE_LINE1":"1 51982U 22025AC  22308.65991200  .00002690  00000-0  18698-3 0  9995","EPHEMERIS_TYPE":"0","PERIAPSIS":"538.506","LAUNCH_DATE":"2022-03-09","OBJECT_NAME":"STARLINK-3650","SITE":"AFETR","BSTAR":"0.00018698000000","APOAPSIS":"540.931","REF_FRAME":"TEME","ECCENTRICITY":"0.00017530","PERIOD":"95.437","TLE_LINE2":"2 51982  53.2171 120.5303 0001753  52.6424 307.4728 15.08848722 36723","ELEMENT_SET_NO":"999","TIME_SYSTEM":"UTC","CLASSIFICATION_TYPE":"U","MEAN_MOTION_DOT":"0.00002690","OBJECT_TYPE":"PAYLOAD","DECAY_DATE":null,"MEAN_ANOMALY":"307.4728","ARG_OF_PERICENTER":"52.6424","MEAN_MOTION":"15.08848722","NORAD_CAT_ID":"51982"},{"TLE_LINE1":"1 51983U 22025AD  22308.74087169  .00001756  00000-0  12837-3 0  9997","OBJECT_ID":"2022-025AD","FILE":"3645105","RCS_SIZE":"LARGE","INCLINATION":"53.2154","GP_ID":"216937412","CENTER_NAME":"EARTH","RA_OF_ASC_NODE":"120.1650","EPOCH":"2022-11-04T17:46:51.314016","MEAN_ELEMENT_THEORY":"SGP4","COUNTRY_CODE":"US","SEMIMAJOR_AXIS":"6917.859","REV_AT_EPOCH":"3673","MEAN_MOTION_DDOT":"0.0000000000000","NORAD_CAT_ID":"51983","MEAN_MOTION":"15.08847052","ARG_OF_PERICENTER":"69.9865","MEAN_ANOMALY":"290.1307","DECAY_DATE":null,"OBJECT_TYPE":"PAYLOAD","MEAN_MOTION_DOT":"0.00001756","CLASSIFICATION_TYPE":"U","TIME_SYSTEM":"UTC","TLE_LINE2":"2 51983  53.2154 120.1650 0001668  69.9865 290.1307 15.08847052 36738","ELEMENT_SET_NO":"999","PERIOD":"95.437","ECCENTRICITY":"0.00016680","REF_FRAME":"TEME","SITE":"AFETR","BSTAR":"0.00012837000000","APOAPSIS":"540.878","OBJECT_NAME":"STARLINK-3655","LAUNCH_DATE":"2022-03-09","PERIAPSIS":"538.570","EPHEMERIS_TYPE":"0"},{"PERIAPSIS":"538.636","EPHEMERIS_TYPE":"0","BSTAR":"0.00006881500000","SITE":"AFETR","APOAPSIS":"540.857","ECCENTRICITY":"0.00016050","REF_FRAME":"TEME","PERIOD":"95.438","LAUNCH_DATE":"2022-03-09","OBJECT_NAME":"STARLINK-3664","OBJECT_TYPE":"PAYLOAD","TLE_LINE2":"2 51984  53.2179 120.0465 0001605  60.1682 299.9469 15.08839720 36740","ELEMENT_SET_NO":"999","CLASSIFICATION_TYPE":"U","TIME_SYSTEM":"UTC","MEAN_MOTION_DOT":"0.00000807","ARG_OF_PERICENTER":"60.1682","MEAN_MOTION":"15.08839720","NORAD_CAT_ID":"51984","DECAY_DATE":null,"MEAN_ANOMALY":"299.9469","SEMIMAJOR_AXIS":"6917.881","MEAN_MOTION_DDOT":"0.0000000000000","REV_AT_EPOCH":"3674","COUNTRY_CODE":"US","MEAN_ELEMENT_THEORY":"SGP4","EPOCH":"2022-11-04T18:29:15.209952","CENTER_NAME":"EARTH","RA_OF_ASC_NODE":"120.0465","INCLINATION":"53.2179","FILE":"3645105","RCS_SIZE":"LARGE","GP_ID":"216937663","TLE_LINE1":"1 51984U 22025AE  22308.77031493  .00000807  00000-0  68815-4 0  9994","OBJECT_ID":"2022-025AE"},{"TIME_SYSTEM":"UTC","CLASSIFICATION_TYPE":"U","TLE_LINE2":"2 51985  53.2176 120.5057 0001287  56.1538 303.9576 15.08844512 36729","ELEMENT_SET_NO":"999","MEAN_MOTION_DOT":"0.00001163","OBJECT_TYPE":"PAYLOAD","DECAY_DATE":null,"MEAN_ANOMALY":"303.9576","ARG_OF_PERICENTER":"56.1538","NORAD_CAT_ID":"51985","MEAN_MOTION":"15.08844512","EPHEMERIS_TYPE":"0","PERIAPSIS":"538.841","LAUNCH_DATE":"2022-03-09","OBJECT_NAME":"STARLINK-3651","BSTAR":"0.00009113400000","SITE":"AFETR","APOAPSIS":"540.622","PERIOD":"95.437","ECCENTRICITY":"0.00012870","REF_FRAME":"TEME","GP_ID":"216938403","INCLINATION":"53.2176","RCS_SIZE":"LARGE","FILE":"3645105","OBJECT_ID":"2022-025AF","TLE_LINE1":"1 51985U 22025AF  22308.66727224  .00001163  00000-0  91134-4 0  9993","REV_AT_EPOCH":"3672","MEAN_MOTION_DDOT":"0.0000000000000","SEMIMAJOR_AXIS":"6917.867","EPOCH":"2022-11-04T16:00:52.321536","COUNTRY_CODE":"US","MEAN_ELEMENT_THEORY":"SGP4","RA_OF_ASC_NODE":"120.5057","CENTER_NAME":"EARTH"},{"REV_AT_EPOCH":"3674","MEAN_MOTION_DDOT":"0.0000000000000","SEMIMAJOR_AXIS":"6917.838","RA_OF_ASC_NODE":"120.0809","CENTER_NAME":"EARTH","EPOCH":"2022-11-04T18:18:39.510720","MEAN_ELEMENT_THEORY":"SGP4","COUNTRY_CODE":"US","GP_ID":"216937162","RCS_SIZE":"LARGE","FILE":"3645105","INCLINATION":"53.2152","OBJECT_ID":"2022-025AG","TLE_LINE1":"1 51986U 22025AG  22308.76295730  .00001891  00000-0  13682-3 0  9996","EPHEMERIS_TYPE":"0","PERIAPSIS":"538.181","OBJECT_NAME":"STARLINK-3645","LAUNCH_DATE":"2022-03-09","PERIOD":"95.437","REF_FRAME":"TEME","ECCENTRICITY":"0.00022010","APOAPSIS":"541.226","SITE":"AFETR","BSTAR":"0.00013682000000","MEAN_MOTION_DOT":"0.00001891","TIME_SYSTEM":"UTC","CLASSIFICATION_TYPE":"U","TLE_LINE2":"2 51986  53.2152 120.0809 0002201  56.6219 303.4983 15.08853788 36746","ELEMENT_SET_NO":"999","OBJECT_TYPE":"PAYLOAD","MEAN_ANOMALY":"303.4983","DECAY_DATE":null,"MEAN_MOTION":"15.08853788","NORAD_CAT_ID":"51986","ARG_OF_PERICENTER":"56.6219"}];
